ORBCOMM FM05 [-]        
1 25117U 97084F   24076.96399690  .00002017  00000+0  64819-3 0  9994
2 25117  45.0167  37.1086 0001842  44.6097 315.4902 14.42321913375459
ORBCOMM FM06 [+]        
1 25118U 97084G   24076.92925493  .00002191  00000+0  70012-3 0  9992
2 25118  45.0160  37.4541 0001048  30.4974 358.5246 14.42327049375441
ORBCOMM FM07 [-]        
1 25119U 97084H   24076.91206411  .00002045  00000+0  65748-3 0  9992
2 25119  45.0155  38.0427 0002736  41.5011 318.6047 14.42255061375413
ORBCOMM FM03 [-]        
1 25158U 98007B   24077.17310815  .00001035  00000+0  42929-3 0  9998
2 25158 107.9795 278.5060 0048472 324.7023  35.0910 14.31932863358706
ORBCOMM FM04 [+]        
1 25159U 98007C   24077.17150458  .00001117  00000+0  45802-3 0  9998
2 25159 107.9777 281.4046 0044083 322.4587  37.3476 14.32189031358847
ORBCOMM FM17 [-]        
1 25413U 98046A   24076.83508713  .00001163  00000+0  47294-3 0  9995
2 25413  44.9931 252.3689 0002265 100.3432 259.7670 14.32904293337523
ORBCOMM FM18 [-]        
1 25414U 98046B   24077.28114705  .00001533  00000+0  57551-3 0  9998
2 25414  44.9932 178.4991 0004509 165.0935 195.0046 14.35593170338697
ORBCOMM FM19 [+]        
1 25415U 98046C   24076.42768319  .00001516  00000+0  57182-3 0  9991
2 25415  44.9941 183.8682 0003178 160.2634 312.7648 14.35425668338365
